STARLINK-36613          
1 67578U 26016T   26198.10102830  .00008755  00000+0  27326-3 0  9996
2 67578  97.2838 257.6313 0001347 133.5901 226.5453 15.33436407 26692
STARLINK-36571          
1 67579U 26016U   26198.14451279  .00016395  00000+0  50833-3 0  9993
2 67579  97.2838 257.7262 0001197  96.7179 263.4200 15.33491042 26705
STARLINK-36612          
1 67580U 26016V   26198.16668980  .00015678  00000+0  48709-3 0  9998
2 67580  97.2841 257.8316 0000907  85.5197 231.8711 15.33436501  5865
STARLINK-36632          
1 67581U 26016W   26198.13365279  .00009670  00000+0  30150-3 0  9997
2 67581  97.2835 257.7414 0001279  99.2795 260.8593 15.33442120 26706
STARLINK-36609          
1 67582U 26016X   26198.14724628  .00010635  00000+0  33128-3 0  9997
2 67582  97.2837 257.7225 0001341  96.4109 263.7287 15.33444756 26706
STARLINK-36577          
1 67583U 26016Y   26198.10645933  .00010032  00000+0  31264-3 0  9995
2 67583  97.2845 257.7769 0001326 152.6741 207.4572 15.33445627 26709
STARLINK-36419          
1 67584U 26016Z   26198.11733392  .00009355  00000+0  29173-3 0  9996
2 67584  97.2836 257.7628 0001669 182.7983 177.3250 15.33445257 26703
STARLINK-36560          
1 67585U 26016AA  26198.09830251  .00011235  00000+0  34980-3 0  9998
2 67585  97.2835 257.6366 0001019 150.5082 209.6218 15.33444774 26697
NAVSTAR 85 (USA 581)    
1 67588U 26017A   26197.11392141 -.00000025  00000+0  00000+0 0  9993
2 67588  55.1067  87.5942 0021564 260.2085  99.6021  2.00570476432193
STARLINK-36641          
1 67589U 26018A   26198.16065274  .00010494  00000+0  32691-3 0  9990
2 67589  97.2853 262.4956 0001434  74.9290 285.2112 15.33445860 27175
STARLINK-36376          
1 67590U 26018B   26198.14161749  .00012545  00000+0  39027-3 0  9993
2 67590  97.2836 262.5258 0000998 190.5570 169.5652 15.33443640 27171
STARLINK-36391          
1 67591U 26018C   26198.10899133  .00008396  00000+0  26208-3 0  9991
2 67591  97.2823 262.4197 0001713  99.0309 261.1128 15.33446359 27164
STARLINK-36603          
1 67592U 26018D   26198.13618260  .00011354  00000+0  35350-3 0  9991
2 67592  97.2838 262.5327 0000574 120.3524 239.7775 15.33445598 27172
STARLINK-36634          
1 67593U 26018E   26197.73921477  .00007761  00000+0  24254-3 0  9992
2 67593  97.2839 262.1560 0001349  79.8204 280.3191 15.33437977 27113
STARLINK-36638          
1 67594U 26018F   26197.71201844  .00004069  00000+0  12830-3 0  9995
2 67594  97.2834 262.0399 0000383 155.1513 204.9748 15.33442426 27100
STARLINK-36628          
1 67595U 26018G   26198.14705507  .00010026  00000+0  31244-3 0  9999
2 67595  97.2841 262.5182 0000327 139.9568 220.1698 15.33447754 27172
STARLINK-36629          
1 67596U 26018H   26197.76368502  .00005244  00000+0  16469-3 0  9995
2 67596  97.2836 262.1201 0001613  52.4724 307.6665 15.33437140 27114
STARLINK-36384          
1 67597U 26018J   26198.11443135  .00015035  00000+0  46697-3 0  9997
2 67597  97.2838 262.5638 0002076  91.4420 268.7060 15.33452966 27170
STARLINK-36358          
1 67598U 26018K   26197.75824735  .00005984  00000+0  18757-3 0  9994
2 67598  97.2835 262.1278 0001417  78.2668 281.8733 15.33440103 27116
STARLINK-36582          
1 67599U 26018L   26197.74193176  .00007035  00000+0  22009-3 0  9996
2 67599  97.2842 262.1508 0000571 108.7429 251.3876 15.33438403 27160
STARLINK-36640          
1 67600U 26018M   26198.15251580  .00012279  00000+0  38212-3 0  9998
2 67600  97.2846 262.5114 0001986  86.0225 274.1245 15.33438502 27171
STARLINK-36635          
1 67601U 26018N   26198.11986562  .00010086  00000+0  31430-3 0  9999
2 67601  97.2837 262.5559 0001498 146.0640 214.0698 15.33446164 27179
STARLINK-36631          
1 67602U 26018P   26198.11171071  .00013920  00000+0  43276-3 0  9992
2 67602  97.2839 262.5678 0000798 114.9684 245.1641 15.33440556 27170
STARLINK-36626          
1 67603U 26018Q   26198.12802311  .00010974  00000+0  34170-3 0  9991
2 67603  97.2839 262.5455 0001439 111.8211 248.3185 15.33450398 27172
STARLINK-36605          
1 67604U 26018R   26197.75280529  .00010693  00000+0  33308-3 0  9991
2 67604  97.2836 262.1350 0000372  81.5662 278.5623 15.33444805 27110
STARLINK-36281          
1 67605U 26018S   26197.70658439  .00010736  00000+0  33451-3 0  9993
2 67605  97.2839 262.0466 0001019  74.2890 285.8466 15.33435117 27103
STARLINK-35843          
1 67606U 26018T   26198.13890132  .00013105  00000+0  40755-3 0  9998
2 67606  97.2843 262.5311 0000459 102.1927 257.9367 15.33445503 27179
STARLINK-36351          
1 67607U 26018U   26198.12530377  .00013406  00000+0  41678-3 0  9999
2 67607  97.2834 262.5492 0001007 134.4569 225.6756 15.33450617 27176
STARLINK-36411          
1 67608U 26018V   26197.70930110  .00004780  00000+0  15031-3 0  9991
2 67608  97.2837 262.0454 0000740 100.6375 259.4951 15.33440968 27109
STARLINK-36312          
1 67609U 26018W   26198.16668980  .00030021  00000+0  92949-3 0  9996
2 67609  97.2843 262.5968 0000398 115.2840 128.1117 15.33412709  5812
