OBJECT_NAME,OBJECT_ID,EPOCH,MEAN_MOTION,ECCENTRICITY,INCLINATION,RA_OF_ASC_NODE,ARG_OF_PERICENTER,MEAN_ANOMALY,EPHEMERIS_TYPE,CLASSIFICATION_TYPE,NORAD_CAT_ID,ELEMENT_SET_NO,REV_AT_EPOCH,BSTAR,MEAN_MOTION_DOT,MEAN_MOTION_DDOT
STARLINK-36613,2026-016T,2026-07-17T02:25:28.845120,15.33436407,.0001347,97.2838,257.6313,133.5901,226.5453,0,U,67578,999,2669,.27326E-3,.8755E-4,0
STARLINK-36571,2026-016U,2026-07-17T03:28:05.905056,15.33491042,.0001197,97.2838,257.7262,96.7179,263.4200,0,U,67579,999,2670,.50833E-3,.16395E-3,0
STARLINK-36612,2026-016V,2026-07-17T04:00:01.998720,15.33436501,.0000907,97.2841,257.8316,85.5197,231.8711,0,U,67580,999,586,.48709E-3,.15678E-3,0
STARLINK-36632,2026-016W,2026-07-17T03:12:27.601056,15.33442120,.0001279,97.2835,257.7414,99.2795,260.8593,0,U,67581,999,2670,.3015E-3,.967E-4,0
STARLINK-36609,2026-016X,2026-07-17T03:32:02.078592,15.33444756,.0001341,97.2837,257.7225,96.4109,263.7287,0,U,67582,999,2670,.33128E-3,.10635E-3,0
STARLINK-36577,2026-016Y,2026-07-17T02:33:18.086112,15.33445627,.0001326,97.2845,257.7769,152.6741,207.4572,0,U,67583,999,2670,.31264E-3,.10032E-3,0
STARLINK-36419,2026-016Z,2026-07-17T02:48:57.650688,15.33445257,.0001669,97.2836,257.7628,182.7983,177.3250,0,U,67584,999,2670,.29173E-3,.9355E-4,0
STARLINK-36560,2026-016AA,2026-07-17T02:21:33.336864,15.33444774,.0001019,97.2835,257.6366,150.5082,209.6218,0,U,67585,999,2669,.3498E-3,.11235E-3,0
NAVSTAR 85 (USA 581),2026-017A,2026-07-16T02:44:02.809824,2.00570476,.0021564,55.1067,87.5942,260.2085,99.6021,0,U,67588,999,43219,0,-.25E-6,0
STARLINK-36641,2026-018A,2026-07-17T03:51:20.396736,15.33445860,.0001434,97.2853,262.4956,74.9290,285.2112,0,U,67589,999,2717,.32691E-3,.10494E-3,0
STARLINK-36376,2026-018B,2026-07-17T03:23:55.751136,15.33443640,.0000998,97.2836,262.5258,190.5570,169.5652,0,U,67590,999,2717,.39027E-3,.12545E-3,0
STARLINK-36391,2026-018C,2026-07-17T02:36:56.850912,15.33446359,.0001713,97.2823,262.4197,99.0309,261.1128,0,U,67591,999,2716,.26208E-3,.8396E-4,0
STARLINK-36603,2026-018D,2026-07-17T03:16:06.176640,15.33445598,.0000574,97.2838,262.5327,120.3524,239.7775,0,U,67592,999,2717,.3535E-3,.11354E-3,0
STARLINK-36634,2026-018E,2026-07-16T17:44:28.156128,15.33437977,.0001349,97.2839,262.1560,79.8204,280.3191,0,U,67593,999,2711,.24254E-3,.7761E-4,0
STARLINK-36638,2026-018F,2026-07-16T17:05:18.393216,15.33442426,.0000383,97.2834,262.0399,155.1513,204.9748,0,U,67594,999,2710,.1283E-3,.4069E-4,0
STARLINK-36628,2026-018G,2026-07-17T03:31:45.558048,15.33447754,.0000327,97.2841,262.5182,139.9568,220.1698,0,U,67595,999,2717,.31244E-3,.10026E-3,0
STARLINK-36629,2026-018H,2026-07-16T18:19:42.385728,15.33437140,.0001613,97.2836,262.1201,52.4724,307.6665,0,U,67596,999,2711,.16469E-3,.5244E-4,0
STARLINK-36384,2026-018J,2026-07-17T02:44:46.868640,15.33452966,.0002076,97.2838,262.5638,91.4420,268.7060,0,U,67597,999,2717,.46697E-3,.15035E-3,0
STARLINK-36358,2026-018K,2026-07-16T18:11:52.571040,15.33440103,.0001417,97.2835,262.1278,78.2668,281.8733,0,U,67598,999,2711,.18757E-3,.5984E-4,0
STARLINK-36582,2026-018L,2026-07-16T17:48:22.904064,15.33438403,.0000571,97.2842,262.1508,108.7429,251.3876,0,U,67599,999,2716,.22009E-3,.7035E-4,0
STARLINK-36640,2026-018M,2026-07-17T03:39:37.365120,15.33438502,.0001986,97.2846,262.5114,86.0225,274.1245,0,U,67600,999,2717,.38212E-3,.12279E-3,0
STARLINK-36635,2026-018N,2026-07-17T02:52:36.389568,15.33446164,.0001498,97.2837,262.5559,146.0640,214.0698,0,U,67601,999,2717,.3143E-3,.10086E-3,0
STARLINK-36631,2026-018P,2026-07-17T02:40:51.805344,15.33440556,.0000798,97.2839,262.5678,114.9684,245.1641,0,U,67602,999,2717,.43276E-3,.1392E-3,0
STARLINK-36626,2026-018Q,2026-07-17T03:04:21.196704,15.33450398,.0001439,97.2839,262.5455,111.8211,248.3185,0,U,67603,999,2717,.3417E-3,.10974E-3,0
STARLINK-36605,2026-018R,2026-07-16T18:04:02.377056,15.33444805,.0000372,97.2836,262.1350,81.5662,278.5623,0,U,67604,999,2711,.33308E-3,.10693E-3,0
STARLINK-36281,2026-018S,2026-07-16T16:57:28.891296,15.33435117,.0001019,97.2839,262.0466,74.2890,285.8466,0,U,67605,999,2710,.33451E-3,.10736E-3,0
STARLINK-35843,2026-018T,2026-07-17T03:20:01.074048,15.33445503,.0000459,97.2843,262.5311,102.1927,257.9367,0,U,67606,999,2717,.40755E-3,.13105E-3,0
STARLINK-36351,2026-018U,2026-07-17T03:00:26.245728,15.33450617,.0001007,97.2834,262.5492,134.4569,225.6756,0,U,67607,999,2717,.41678E-3,.13406E-3,0
STARLINK-36411,2026-018V,2026-07-16T17:01:23.615040,15.33440968,.000074,97.2837,262.0454,100.6375,259.4951,0,U,67608,999,2710,.15031E-3,.478E-4,0
STARLINK-36312,2026-018W,2026-07-17T04:00:01.998720,15.33412709,.0000398,97.2843,262.5968,115.2840,128.1117,0,U,67609,999,581,.92949E-3,.30021E-3,0
